IRIDIUM 159             
1 43578U 18061K   25088.85053641  .00000465  00000+0  15894-3 0  9992
2 43578  86.3944 242.3325 0002191  95.8855 264.2591 14.34218849349691
IRIDIUM 180             
1 43922U 19002A   25088.78026669  .00000792  00000+0  27569-3 0  9998
2 43922  86.4041 179.3258 0002136  93.5322 266.6118 14.34215448325338
IRIDIUM 176             
1 43923U 19002B   25088.78612283  .00002196  00000+0  34447-3 0  9995
2 43923  86.6167 179.3234 0002756  83.4625 276.6906 14.72239769333863
IRIDIUM 168             
1 43924U 19002C   25088.77392405  .00000222  00000+0  72046-4 0  9992
2 43924  86.4043 179.3937 0002281  96.8430 263.3025 14.34217080325271
IRIDIUM 173             
1 43925U 19002D   25088.76123167  .00000316  00000+0  10566-3 0  9991
2 43925  86.4043 179.3064 0002191  91.5393 268.6054 14.34212851325263
IRIDIUM 169             
1 43926U 19002E   25088.86044449  .00000672  00000+0  21314-3 0  9996
2 43926  86.4273 210.8296 0002070  52.4726 307.6660 14.38617388326344
IRIDIUM 172             
1 43927U 19002F   25088.33628620  .00000811  00000+0  28241-3 0  9999
2 43927  86.4045 179.4900 0002522  96.9344 263.2139 14.34215909325206
IRIDIUM 175             
1 43928U 19002G   25088.84891235  .00001848  00000+0  28914-3 0  9998
2 43928  86.1501 136.3552 0001334  81.8007 278.3360 14.72243504333863
